STARLINK-35402          
1 66079U 25235X   25310.75001156 -.01951866  00000+0 -26169-1 0  9993
2 66079  53.1600  99.2243 0001243  69.0008  79.3308 15.60723180  4093
STARLINK-35325          
1 66080U 25235Y   25310.75001156 -.01952184  00000+0 -26174-1 0  9995
2 66080  53.1597  99.2317 0001252  69.8198  74.6784 15.60723266  4091
STARLINK-35403          
1 66081U 25235Z   25310.75001156 -.01958358  00000+0 -26262-1 0  9993
2 66081  53.1601  99.2178 0001216  70.6342  81.5263 15.60729570  4097
STARLINK-35011          
1 66082U 25235AA  25310.75001156 -.01949615  00000+0 -26138-1 0  9992
2 66082  53.1601  99.2198 0001184  67.8086  82.4407 15.60721200  4099
STARLINK-35291          
1 66083U 25235AB  25310.75001156 -.01949591  00000+0 -26135-1 0  9993
2 66083  53.1601  99.2127 0001347  69.5912  84.4917 15.60721766  4040
STARLINK-35379          
1 66084U 25235AC  25310.75001156 -.01950608  00000+0 -26151-1 0  9993
2 66084  53.1599  99.2081 0001278  68.5624  87.4374 15.60722033  4091
STARLINK-35370          
1 66085U 25235AD  25310.75001156 -.01952574  00000+0 -26180-1 0  9990
2 66085  53.1602  99.2038 0001149  68.5172  89.3970 15.60724159  4043
STARLINK-35596          
1 66086U 25236A   25310.53375329  .00230878  00000+0  15302-2 0  9992
2 66086  53.1572 319.8755 0000945  83.4537 276.6590 15.74305071  4032
STARLINK-35563          
1 66087U 25236B   25310.53341407  .00209296  00000+0  13913-2 0  9999
2 66087  53.1572 319.8730 0001003 109.2079 250.9049 15.74302871  3971
STARLINK-35461          
1 66088U 25236C   25310.53273921  .00237459  00000+0  15723-2 0  9998
2 66088  53.1572 319.8685 0001180 123.5220 236.5913 15.74308346  3977
STARLINK-35571          
1 66089U 25236D   25310.53307729  .00226531  00000+0  15025-2 0  9997
2 66089  53.1572 319.8713 0000910 106.5329 253.5791 15.74301359  4039
STARLINK-35570          
1 66090U 25236E   25310.53240285  .00202248  00000+0  13465-2 0  9997
2 66090  53.1572 319.8669 0001106 108.7023 251.4116 15.74288429  4034
