CCSDS_OMM_VERS = 2.0
CREATION_DATE  = 
ORIGINATOR     = 

OBJECT_NAME    = STARLINK-35402
OBJECT_ID      = 2025-235X
CENTER_NAME    = EARTH
REF_FRAME      = TEME
TIME_SYSTEM    = UTC
MEAN_ELEMENT_THEORY = SGP/SGP4

EPOCH          = 2025-11-06T18:00:00.998784
MEAN_MOTION    = 15.60723180
ECCENTRICITY   = .0001243
INCLINATION    = 53.1600
RA_OF_ASC_NODE = 99.2243
ARG_OF_PERICENTER = 69.0008
MEAN_ANOMALY   = 79.3308

EPHEMERIS_TYPE = 0
CLASSIFICATION_TYPE = U
NORAD_CAT_ID   = 66079
ELEMENT_SET_NO = 999
REV_AT_EPOCH   = 409
BSTAR          = -.26169E-1
MEAN_MOTION_DOT = -.1951866E-1
MEAN_MOTION_DDOT = 0

CCSDS_OMM_VERS = 2.0
CREATION_DATE  = 
ORIGINATOR     = 

OBJECT_NAME    = STARLINK-35325
OBJECT_ID      = 2025-235Y
CENTER_NAME    = EARTH
REF_FRAME      = TEME
TIME_SYSTEM    = UTC
MEAN_ELEMENT_THEORY = SGP/SGP4

EPOCH          = 2025-11-06T18:00:00.998784
MEAN_MOTION    = 15.60723266
ECCENTRICITY   = .0001252
INCLINATION    = 53.1597
RA_OF_ASC_NODE = 99.2317
ARG_OF_PERICENTER = 69.8198
MEAN_ANOMALY   = 74.6784

EPHEMERIS_TYPE = 0
CLASSIFICATION_TYPE = U
NORAD_CAT_ID   = 66080
ELEMENT_SET_NO = 999
REV_AT_EPOCH   = 409
BSTAR          = -.26174E-1
MEAN_MOTION_DOT = -.1952184E-1
MEAN_MOTION_DDOT = 0

CCSDS_OMM_VERS = 2.0
CREATION_DATE  = 
ORIGINATOR     = 

OBJECT_NAME    = STARLINK-35403
OBJECT_ID      = 2025-235Z
CENTER_NAME    = EARTH
REF_FRAME      = TEME
TIME_SYSTEM    = UTC
MEAN_ELEMENT_THEORY = SGP/SGP4

EPOCH          = 2025-11-06T18:00:00.998784
MEAN_MOTION    = 15.60729570
ECCENTRICITY   = .0001216
INCLINATION    = 53.1601
RA_OF_ASC_NODE = 99.2178
ARG_OF_PERICENTER = 70.6342
MEAN_ANOMALY   = 81.5263

EPHEMERIS_TYPE = 0
CLASSIFICATION_TYPE = U
NORAD_CAT_ID   = 66081
ELEMENT_SET_NO = 999
REV_AT_EPOCH   = 409
BSTAR          = -.26262E-1
MEAN_MOTION_DOT = -.1958358E-1
MEAN_MOTION_DDOT = 0

CCSDS_OMM_VERS = 2.0
CREATION_DATE  = 
ORIGINATOR     = 

OBJECT_NAME    = STARLINK-35011
OBJECT_ID      = 2025-235AA
CENTER_NAME    = EARTH
REF_FRAME      = TEME
TIME_SYSTEM    = UTC
MEAN_ELEMENT_THEORY = SGP/SGP4

EPOCH          = 2025-11-06T18:00:00.998784
MEAN_MOTION    = 15.60721200
ECCENTRICITY   = .0001184
INCLINATION    = 53.1601
RA_OF_ASC_NODE = 99.2198
ARG_OF_PERICENTER = 67.8086
MEAN_ANOMALY   = 82.4407

EPHEMERIS_TYPE = 0
CLASSIFICATION_TYPE = U
NORAD_CAT_ID   = 66082
ELEMENT_SET_NO = 999
REV_AT_EPOCH   = 409
BSTAR          = -.26138E-1
MEAN_MOTION_DOT = -.1949615E-1
MEAN_MOTION_DDOT = 0

CCSDS_OMM_VERS = 2.0
CREATION_DATE  = 
ORIGINATOR     = 

OBJECT_NAME    = STARLINK-35291
OBJECT_ID      = 2025-235AB
CENTER_NAME    = EARTH
REF_FRAME      = TEME
TIME_SYSTEM    = UTC
MEAN_ELEMENT_THEORY = SGP/SGP4

EPOCH          = 2025-11-06T18:00:00.998784
MEAN_MOTION    = 15.60721766
ECCENTRICITY   = .0001347
INCLINATION    = 53.1601
RA_OF_ASC_NODE = 99.2127
ARG_OF_PERICENTER = 69.5912
MEAN_ANOMALY   = 84.4917

EPHEMERIS_TYPE = 0
CLASSIFICATION_TYPE = U
NORAD_CAT_ID   = 66083
ELEMENT_SET_NO = 999
REV_AT_EPOCH   = 404
BSTAR          = -.26135E-1
MEAN_MOTION_DOT = -.1949591E-1
MEAN_MOTION_DDOT = 0

CCSDS_OMM_VERS = 2.0
CREATION_DATE  = 
ORIGINATOR     = 

OBJECT_NAME    = STARLINK-35379
OBJECT_ID      = 2025-235AC
CENTER_NAME    = EARTH
REF_FRAME      = TEME
TIME_SYSTEM    = UTC
MEAN_ELEMENT_THEORY = SGP/SGP4

EPOCH          = 2025-11-06T18:00:00.998784
MEAN_MOTION    = 15.60722033
ECCENTRICITY   = .0001278
INCLINATION    = 53.1599
RA_OF_ASC_NODE = 99.2081
ARG_OF_PERICENTER = 68.5624
MEAN_ANOMALY   = 87.4374

EPHEMERIS_TYPE = 0
CLASSIFICATION_TYPE = U
NORAD_CAT_ID   = 66084
ELEMENT_SET_NO = 999
REV_AT_EPOCH   = 409
BSTAR          = -.26151E-1
MEAN_MOTION_DOT = -.1950608E-1
MEAN_MOTION_DDOT = 0

CCSDS_OMM_VERS = 2.0
CREATION_DATE  = 
ORIGINATOR     = 

OBJECT_NAME    = STARLINK-35370
OBJECT_ID      = 2025-235AD
CENTER_NAME    = EARTH
REF_FRAME      = TEME
TIME_SYSTEM    = UTC
MEAN_ELEMENT_THEORY = SGP/SGP4

EPOCH          = 2025-11-06T18:00:00.998784
MEAN_MOTION    = 15.60724159
ECCENTRICITY   = .0001149
INCLINATION    = 53.1602
RA_OF_ASC_NODE = 99.2038
ARG_OF_PERICENTER = 68.5172
MEAN_ANOMALY   = 89.3970

EPHEMERIS_TYPE = 0
CLASSIFICATION_TYPE = U
NORAD_CAT_ID   = 66085
ELEMENT_SET_NO = 999
REV_AT_EPOCH   = 404
BSTAR          = -.2618E-1
MEAN_MOTION_DOT = -.1952574E-1
MEAN_MOTION_DDOT = 0

CCSDS_OMM_VERS = 2.0
CREATION_DATE  = 
ORIGINATOR     = 

OBJECT_NAME    = STARLINK-35596
OBJECT_ID      = 2025-236A
CENTER_NAME    = EARTH
REF_FRAME      = TEME
TIME_SYSTEM    = UTC
MEAN_ELEMENT_THEORY = SGP/SGP4

EPOCH          = 2025-11-06T12:48:36.284256
MEAN_MOTION    = 15.74305071
ECCENTRICITY   = .0000945
INCLINATION    = 53.1572
RA_OF_ASC_NODE = 319.8755
ARG_OF_PERICENTER = 83.4537
MEAN_ANOMALY   = 276.6590

EPHEMERIS_TYPE = 0
CLASSIFICATION_TYPE = U
NORAD_CAT_ID   = 66086
ELEMENT_SET_NO = 999
REV_AT_EPOCH   = 403
BSTAR          = .15302E-2
MEAN_MOTION_DOT = .230878E-2
MEAN_MOTION_DDOT = 0

CCSDS_OMM_VERS = 2.0
CREATION_DATE  = 
ORIGINATOR     = 

OBJECT_NAME    = STARLINK-35563
OBJECT_ID      = 2025-236B
CENTER_NAME    = EARTH
REF_FRAME      = TEME
TIME_SYSTEM    = UTC
MEAN_ELEMENT_THEORY = SGP/SGP4

EPOCH          = 2025-11-06T12:48:06.975648
MEAN_MOTION    = 15.74302871
ECCENTRICITY   = .0001003
INCLINATION    = 53.1572
RA_OF_ASC_NODE = 319.8730
ARG_OF_PERICENTER = 109.2079
MEAN_ANOMALY   = 250.9049

EPHEMERIS_TYPE = 0
CLASSIFICATION_TYPE = U
NORAD_CAT_ID   = 66087
ELEMENT_SET_NO = 999
REV_AT_EPOCH   = 397
BSTAR          = .13913E-2
MEAN_MOTION_DOT = .209296E-2
MEAN_MOTION_DDOT = 0

CCSDS_OMM_VERS = 2.0
CREATION_DATE  = 
ORIGINATOR     = 

OBJECT_NAME    = STARLINK-35461
OBJECT_ID      = 2025-236C
CENTER_NAME    = EARTH
REF_FRAME      = TEME
TIME_SYSTEM    = UTC
MEAN_ELEMENT_THEORY = SGP/SGP4

EPOCH          = 2025-11-06T12:47:08.667744
MEAN_MOTION    = 15.74308346
ECCENTRICITY   = .000118
INCLINATION    = 53.1572
RA_OF_ASC_NODE = 319.8685
ARG_OF_PERICENTER = 123.5220
MEAN_ANOMALY   = 236.5913

EPHEMERIS_TYPE = 0
CLASSIFICATION_TYPE = U
NORAD_CAT_ID   = 66088
ELEMENT_SET_NO = 999
REV_AT_EPOCH   = 397
BSTAR          = .15723E-2
MEAN_MOTION_DOT = .237459E-2
MEAN_MOTION_DDOT = 0

CCSDS_OMM_VERS = 2.0
CREATION_DATE  = 
ORIGINATOR     = 

OBJECT_NAME    = STARLINK-35571
OBJECT_ID      = 2025-236D
CENTER_NAME    = EARTH
REF_FRAME      = TEME
TIME_SYSTEM    = UTC
MEAN_ELEMENT_THEORY = SGP/SGP4

EPOCH          = 2025-11-06T12:47:37.877856
MEAN_MOTION    = 15.74301359
ECCENTRICITY   = .000091
INCLINATION    = 53.1572
RA_OF_ASC_NODE = 319.8713
ARG_OF_PERICENTER = 106.5329
MEAN_ANOMALY   = 253.5791

EPHEMERIS_TYPE = 0
CLASSIFICATION_TYPE = U
NORAD_CAT_ID   = 66089
ELEMENT_SET_NO = 999
REV_AT_EPOCH   = 403
BSTAR          = .15025E-2
MEAN_MOTION_DOT = .226531E-2
MEAN_MOTION_DDOT = 0

CCSDS_OMM_VERS = 2.0
CREATION_DATE  = 
ORIGINATOR     = 

OBJECT_NAME    = STARLINK-35570
OBJECT_ID      = 2025-236E
CENTER_NAME    = EARTH
REF_FRAME      = TEME
TIME_SYSTEM    = UTC
MEAN_ELEMENT_THEORY = SGP/SGP4

EPOCH          = 2025-11-06T12:46:39.606240
MEAN_MOTION    = 15.74288429
ECCENTRICITY   = .0001106
INCLINATION    = 53.1572
RA_OF_ASC_NODE = 319.8669
ARG_OF_PERICENTER = 108.7023
MEAN_ANOMALY   = 251.4116

EPHEMERIS_TYPE = 0
CLASSIFICATION_TYPE = U
NORAD_CAT_ID   = 66090
ELEMENT_SET_NO = 999
REV_AT_EPOCH   = 403
BSTAR          = .13465E-2
MEAN_MOTION_DOT = .202248E-2
MEAN_MOTION_DDOT = 0

